{"type": "FeatureCollection", "features": [{"type": "Feature", "properties": {"norad_id": 25590, "name": "COSMOS 2361", "group": "musson", "lat": 54.89259942614133, "lon": -3.4435578558463824, "alt_km": 999.9739700598811, "timestamp": "2025-12-09T14:52:26.431568+00:00", "meta": {"OBJECT_NAME": "COSMOS 2361", "OBJECT_ID": "1998-076A", "EPOCH": "2025-12-09T02:40:28.905888", "MEAN_MOTION": 13.73216881, "ECCENTRICITY": 0.00300616, "INCLINATION": 82.9338, "RA_OF_ASC_NODE": 346.7702, "ARG_OF_PERICENTER": 276.1386, "MEAN_ANOMALY": 147.7937, "EPHEMERIS_TYPE": 0, "CLASSIFICATION_TYPE": "U", "NORAD_CAT_ID": 25590, "ELEMENT_SET_NO": 999, "REV_AT_EPOCH": 35061, "BSTAR": 7.6819126e-05, "MEAN_MOTION_DOT": 8.6e-07, "MEAN_MOTION_DDOT": 0}, "tle": {"line1": "1 25590U 98076A   25343.11144567  .00000086  00000+0  76819-4 0  9995", "line2": "2 25590  82.9338 346.7702 0030061 276.1386 147.7937 13.73216881350611"}}, "geometry": {"type": "Point", "coordinates": [-3.4435578558463824, 54.89259942614133]}}, {"type": "Feature", "properties": {"norad_id": 26818, "name": "COSMOS 2378", "group": "musson", "lat": 61.863254064263245, "lon": 168.61487509722028, "alt_km": 981.325965548438, "timestamp": "2025-12-09T14:52:26.431589+00:00", "meta": {"OBJECT_NAME": "COSMOS 2378", "OBJECT_ID": "2001-023A", "EPOCH": "2025-12-09T07:21:54.196128", "MEAN_MOTION": 13.74141581, "ECCENTRICITY": 0.0032214, "INCLINATION": 82.9273, "RA_OF_ASC_NODE": 2.2705, "ARG_OF_PERICENTER": 214.6193, "MEAN_ANOMALY": 156.1185, "EPHEMERIS_TYPE": 0, "CLASSIFICATION_TYPE": "U", "NORAD_CAT_ID": 26818, "ELEMENT_SET_NO": 999, "REV_AT_EPOCH": 22876, "BSTAR": 6.0275309e-05, "MEAN_MOTION_DOT": 7.2e-07, "MEAN_MOTION_DDOT": 0}, "tle": {"line1": "1 26818U 01023A   25343.30687727  .00000072  00000+0  60275-4 0  9990", "line2": "2 26818  82.9273   2.2705 0032214 214.6193 156.1185 13.74141581228769"}}, "geometry": {"type": "Point", "coordinates": [168.61487509722028, 61.863254064263245]}}, {"type": "Feature", "properties": {"norad_id": 27436, "name": "COSMOS 2389", "group": "musson", "lat": -46.91853001177537, "lon": -58.309282940638866, "alt_km": 1003.4268595036046, "timestamp": "2025-12-09T14:52:26.431603+00:00", "meta": {"OBJECT_NAME": "COSMOS 2389", "OBJECT_ID": "2002-026A", "EPOCH": "2025-12-09T06:54:57.800736", "MEAN_MOTION": 13.75154102, "ECCENTRICITY": 0.0047698, "INCLINATION": 82.95, "RA_OF_ASC_NODE": 309.54, "ARG_OF_PERICENTER": 70.1183, "MEAN_ANOMALY": 42.4814, "EPHEMERIS_TYPE": 0, "CLASSIFICATION_TYPE": "U", "NORAD_CAT_ID": 27436, "ELEMENT_SET_NO": 999, "REV_AT_EPOCH": 18101, "BSTAR": 9.5501197e-05, "MEAN_MOTION_DOT": 1.08e-06, "MEAN_MOTION_DDOT": 0}, "tle": {"line1": "1 27436U 02026A   25343.28816899  .00000108  00000+0  95501-4 0  9992", "line2": "2 27436  82.9500 309.5400 0047698  70.1183  42.4814 13.75154102181016"}}, "geometry": {"type": "Point", "coordinates": [-58.309282940638866, -46.91853001177537]}}, {"type": "Feature", "properties": {"norad_id": 27818, "name": "COSMOS 2398", "group": "musson", "lat": -62.27764293566978, "lon": -98.62578843991375, "alt_km": 1022.0913273969081, "timestamp": "2025-12-09T14:52:26.431615+00:00", "meta": {"OBJECT_NAME": "COSMOS 2398", "OBJECT_ID": "2003-023A", "EPOCH": "2025-12-09T06:58:14.192256", "MEAN_MOTION": 13.72385198, "ECCENTRICITY": 0.00324602, "INCLINATION": 82.9483, "RA_OF_ASC_NODE": 275.24, "ARG_OF_PERICENTER": 121.0294, "MEAN_ANOMALY": 349.8236, "EPHEMERIS_TYPE": 0, "CLASSIFICATION_TYPE": "U", "NORAD_CAT_ID": 27818, "ELEMENT_SET_NO": 999, "REV_AT_EPOCH": 12769, "BSTAR": 0.0001023755, "MEAN_MOTION_DOT": 1.09e-06, "MEAN_MOTION_DDOT": 0}, "tle": {"line1": "1 27818U 03023A   25343.29044204  .00000109  00000+0  10238-3 0  9992", "line2": "2 27818  82.9483 275.2400 0032460 121.0294 349.8236 13.72385198127693"}}, "geometry": {"type": "Point", "coordinates": [-98.62578843991375, -62.27764293566978]}}, {"type": "Feature", "properties": {"norad_id": 28380, "name": "COSMOS 2407", "group": "musson", "lat": 82.85309511386457, "lon": -64.62181358006923, "alt_km": 942.6660277524088, "timestamp": "2025-12-09T14:52:26.431626+00:00", "meta": {"OBJECT_NAME": "COSMOS 2407", "OBJECT_ID": "2004-028A", "EPOCH": "2025-12-09T04:32:09.726144", "MEAN_MOTION": 13.7631308, "ECCENTRICITY": 0.00404287, "INCLINATION": 82.9611, "RA_OF_ASC_NODE": 215.5215, "ARG_OF_PERICENTER": 64.4728, "MEAN_ANOMALY": 51.0756, "EPHEMERIS_TYPE": 0, "CLASSIFICATION_TYPE": "U", "NORAD_CAT_ID": 28380, "ELEMENT_SET_NO": 999, "REV_AT_EPOCH": 7374, "BSTAR": 7.8593766e-05, "MEAN_MOTION_DOT": 9.3e-07, "MEAN_MOTION_DDOT": 0}, "tle": {"line1": "1 28380U 04028A   25343.18900146  .00000093  00000+0  78594-4 0  9999", "line2": "2 28380  82.9611 215.5215 0040428  64.4728  51.0756 13.76313080 73747"}}, "geometry": {"type": "Point", "coordinates": [-64.62181358006923, 82.85309511386457]}}, {"type": "Feature", "properties": {"norad_id": 28521, "name": "COSMOS 2414", "group": "musson", "lat": -42.17995796380323, "lon": 13.457617002385609, "alt_km": 934.2926874802151, "timestamp": "2025-12-09T14:52:26.431637+00:00", "meta": {"OBJECT_NAME": "COSMOS 2414", "OBJECT_ID": "2005-002A", "EPOCH": "2025-12-09T06:53:15.736416", "MEAN_MOTION": 13.87902363, "ECCENTRICITY": 0.00406929, "INCLINATION": 82.9495, "RA_OF_ASC_NODE": 187.2708, "ARG_OF_PERICENTER": 149.3714, "MEAN_ANOMALY": 210.9837, "EPHEMERIS_TYPE": 0, "CLASSIFICATION_TYPE": "U", "NORAD_CAT_ID": 28521, "ELEMENT_SET_NO": 999, "REV_AT_EPOCH": 5747, "BSTAR": 8.2549448e-05, "MEAN_MOTION_DOT": 1.15e-06, "MEAN_MOTION_DDOT": 0}, "tle": {"line1": "1 28521U 05002A   25343.28698769  .00000115  00000+0  82549-4 0  9995", "line2": "2 28521  82.9495 187.2708 0040692 149.3714 210.9837 13.87902363 57475"}}, "geometry": {"type": "Point", "coordinates": [13.457617002385609, -42.17995796380323]}}, {"type": "Feature", "properties": {"norad_id": 32052, "name": "COSMOS 2429", "group": "musson", "lat": 39.9955498660675, "lon": 159.6760234259227, "alt_km": 979.5145489085508, "timestamp": "2025-12-09T14:52:26.431648+00:00", "meta": {"OBJECT_NAME": "COSMOS 2429", "OBJECT_ID": "2007-038A", "EPOCH": "2025-12-09T07:12:59.056992", "MEAN_MOTION": 13.75148868, "ECCENTRICITY": 0.0039403, "INCLINATION": 82.9803, "RA_OF_ASC_NODE": 345.8443, "ARG_OF_PERICENTER": 47.2336, "MEAN_ANOMALY": 313.2124, "EPHEMERIS_TYPE": 0, "CLASSIFICATION_TYPE": "U", "NORAD_CAT_ID": 32052, "ELEMENT_SET_NO": 999, "REV_AT_EPOCH": 91555, "BSTAR": 7.2273203e-05, "MEAN_MOTION_DOT": 8.5e-07, "MEAN_MOTION_DDOT": 0}, "tle": {"line1": "1 32052U 07038A   25343.30068353  .00000085  00000+0  72273-4 0  9992", "line2": "2 32052  82.9803 345.8443 0039403  47.2336 313.2124 13.75148868915551"}}, "geometry": {"type": "Point", "coordinates": [159.6760234259227, 39.9955498660675]}}, {"type": "Feature", "properties": {"norad_id": 35635, "name": "COSMOS 2454", "group": "musson", "lat": -68.47868310467435, "lon": 9.284011085091787, "alt_km": 950.7812614687555, "timestamp": "2025-12-09T14:52:26.431659+00:00", "meta": {"OBJECT_NAME": "COSMOS 2454", "OBJECT_ID": "2009-039A", "EPOCH": "2025-12-09T07:35:55.560192", "MEAN_MOTION": 13.89927939, "ECCENTRICITY": 0.00204842, "INCLINATION": 82.9555, "RA_OF_ASC_NODE": 171.2399, "ARG_OF_PERICENTER": 82.8645, "MEAN_ANOMALY": 90.7125, "EPHEMERIS_TYPE": 0, "CLASSIFICATION_TYPE": "U", "NORAD_CAT_ID": 35635, "ELEMENT_SET_NO": 999, "REV_AT_EPOCH": 83102, "BSTAR": 6.4454522e-05, "MEAN_MOTION_DOT": 9.5e-07, "MEAN_MOTION_DDOT": 0}, "tle": {"line1": "1 35635U 09039A   25343.31661528  .00000095  00000+0  64455-4 0  9993", "line2": "2 35635  82.9555 171.2399 0020484  82.8645  90.7125 13.89927939831029"}}, "geometry": {"type": "Point", "coordinates": [9.284011085091787, -68.47868310467435]}}, {"type": "Feature", "properties": {"norad_id": 36519, "name": "COSMOS 2463", "group": "musson", "lat": 44.8118491128161, "lon": -158.04438177157854, "alt_km": 1014.2916268835752, "timestamp": "2025-12-09T14:52:26.431670+00:00", "meta": {"OBJECT_NAME": "COSMOS 2463", "OBJECT_ID": "2010-017A", "EPOCH": "2025-12-09T05:47:45.694176", "MEAN_MOTION": 13.71648809, "ECCENTRICITY": 0.00348626, "INCLINATION": 82.9615, "RA_OF_ASC_NODE": 29.2833, "ARG_OF_PERICENTER": 298.1254, "MEAN_ANOMALY": 129.9532, "EPHEMERIS_TYPE": 0, "CLASSIFICATION_TYPE": "U", "NORAD_CAT_ID": 36519, "ELEMENT_SET_NO": 999, "REV_AT_EPOCH": 78189, "BSTAR": 7.9932569e-05, "MEAN_MOTION_DOT": 8.7e-07, "MEAN_MOTION_DDOT": 0}, "tle": {"line1": "1 36519U 10017A   25343.24150109  .00000087  00000+0  79933-4 0  9991", "line2": "2 36519  82.9615  29.2833 0034862 298.1254 129.9532 13.71648809781899"}}, "geometry": {"type": "Point", "coordinates": [-158.04438177157854, 44.8118491128161]}}]}